[{"OBJECT_NAME":"SHIYAN-30 04","OBJECT_ID":"2026-048B","EPOCH":"2026-03-18T17:47:38.518656","MEAN_MOTION":14.91682779,"ECCENTRICITY":0.0002506,"INCLINATION":34.9911,"RA_OF_ASC_NODE":89.8062,"ARG_OF_PERICENTER":286.0433,"MEAN_ANOMALY":73.9995,"EPHEMERIS_TYPE":0,"CLASSIFICATION_TYPE":"U","NORAD_CAT_ID":68140,"ELEMENT_SET_NO":999,"REV_AT_EPOCH":85,"BSTAR":0.00014223,"MEAN_MOTION_DOT":1.431e-5,"MEAN_MOTION_DDOT":0},{"OBJECT_NAME":"CZ-2D R/B","OBJECT_ID":"2026-048C","EPOCH":"2026-03-18T11:05:07.506816","MEAN_MOTION":14.95528002,"ECCENTRICITY":0.00151558,"INCLINATION":35.1293,"RA_OF_ASC_NODE":91.529,"ARG_OF_PERICENTER":40.7983,"MEAN_ANOMALY":319.3858,"EPHEMERIS_TYPE":0,"CLASSIFICATION_TYPE":"U","NORAD_CAT_ID":68141,"ELEMENT_SET_NO":999,"REV_AT_EPOCH":81,"BSTAR":0.00014023088,"MEAN_MOTION_DOT":1.555e-5,"MEAN_MOTION_DDOT":0},{"OBJECT_NAME":"YAOGAN-50 02","OBJECT_ID":"2026-051A","EPOCH":"2026-03-18T12:10:36.007680","MEAN_MOTION":14.07679277,"ECCENTRICITY":0.01074771,"INCLINATION":142.0175,"RA_OF_ASC_NODE":249.1578,"ARG_OF_PERICENTER":141.9397,"MEAN_ANOMALY":218.897,"EPHEMERIS_TYPE":0,"CLASSIFICATION_TYPE":"U","NORAD_CAT_ID":68196,"ELEMENT_SET_NO":999,"REV_AT_EPOCH":42,"BSTAR":2.926437e-5,"MEAN_MOTION_DOT":2.52e-6,"MEAN_MOTION_DDOT":0},{"OBJECT_NAME":"CZ-6A R/B","OBJECT_ID":"2026-051B","EPOCH":"2026-03-18T10:09:49.976640","MEAN_MOTION":14.56355526,"ECCENTRICITY":0.01856301,"INCLINATION":142.0311,"RA_OF_ASC_NODE":249.7328,"ARG_OF_PERICENTER":112.6794,"MEAN_ANOMALY":249.368,"EPHEMERIS_TYPE":0,"CLASSIFICATION_TYPE":"U","NORAD_CAT_ID":68197,"ELEMENT_SET_NO":999,"REV_AT_EPOCH":43,"BSTAR":0.00018982958,"MEAN_MOTION_DOT":1.385e-5,"MEAN_MOTION_DDOT":0},{"OBJECT_NAME":"2026-052A","OBJECT_ID":"2026-052A","EPOCH":"2026-03-18T14:29:16.686240","MEAN_MOTION":15.09827007,"ECCENTRICITY":0.00122951,"INCLINATION":97.539,"RA_OF_ASC_NODE":153.8165,"ARG_OF_PERICENTER":256.4558,"MEAN_ANOMALY":103.5302,"EPHEMERIS_TYPE":0,"CLASSIFICATION_TYPE":"U","NORAD_CAT_ID":68198,"ELEMENT_SET_NO":999,"REV_AT_EPOCH":37,"BSTAR":0.00035823166,"MEAN_MOTION_DOT":5.74e-5,"MEAN_MOTION_DDOT":0},{"OBJECT_NAME":"2026-052B","OBJECT_ID":"2026-052B","EPOCH":"2026-03-18T12:53:28.019040","MEAN_MOTION":15.09983837,"ECCENTRICITY":0.0011565,"INCLINATION":97.5382,"RA_OF_ASC_NODE":153.7509,"ARG_OF_PERICENTER":258.3295,"MEAN_ANOMALY":101.6636,"EPHEMERIS_TYPE":0,"CLASSIFICATION_TYPE":"U","NORAD_CAT_ID":68199,"ELEMENT_SET_NO":999,"REV_AT_EPOCH":36,"BSTAR":0.00010107976,"MEAN_MOTION_DOT":1.58e-5,"MEAN_MOTION_DDOT":0},{"OBJECT_NAME":"2026-052C","OBJECT_ID":"2026-052C","EPOCH":"2026-03-18T14:28:34.352832","MEAN_MOTION":15.10130265,"ECCENTRICITY":0.0011244,"INCLINATION":97.5387,"RA_OF_ASC_NODE":153.8176,"ARG_OF_PERICENTER":261.1579,"MEAN_ANOMALY":98.8377,"EPHEMERIS_TYPE":0,"CLASSIFICATION_TYPE":"U","NORAD_CAT_ID":68200,"ELEMENT_SET_NO":999,"REV_AT_EPOCH":36,"BSTAR":0.00021931003,"MEAN_MOTION_DOT":3.517e-5,"MEAN_MOTION_DDOT":0},{"OBJECT_NAME":"2026-052D","OBJECT_ID":"2026-052D","EPOCH":"2026-03-18T14:28:15.868416","MEAN_MOTION":15.1027149,"ECCENTRICITY":0.00103169,"INCLINATION":97.5387,"RA_OF_ASC_NODE":153.815,"ARG_OF_PERICENTER":257.0784,"MEAN_ANOMALY":102.9293,"EPHEMERIS_TYPE":0,"CLASSIFICATION_TYPE":"U","NORAD_CAT_ID":68201,"ELEMENT_SET_NO":999,"REV_AT_EPOCH":37,"BSTAR":0.00033853068,"MEAN_MOTION_DOT":5.485e-5,"MEAN_MOTION_DDOT":0},{"OBJECT_NAME":"2026-052E","OBJECT_ID":"2026-052E","EPOCH":"2026-03-18T14:28:15.093408","MEAN_MOTION":15.10274806,"ECCENTRICITY":0.00101925,"INCLINATION":97.5396,"RA_OF_ASC_NODE":153.8158,"ARG_OF_PERICENTER":261.3625,"MEAN_ANOMALY":98.645,"EPHEMERIS_TYPE":0,"CLASSIFICATION_TYPE":"U","NORAD_CAT_ID":68202,"ELEMENT_SET_NO":999,"REV_AT_EPOCH":37,"BSTAR":0.00031437975,"MEAN_MOTION_DOT":5.089e-5,"MEAN_MOTION_DDOT":0},{"OBJECT_NAME":"2026-052F","OBJECT_ID":"2026-052F","EPOCH":"2026-03-18T14:27:40.986144","MEAN_MOTION":15.10527017,"ECCENTRICITY":0.00093872,"INCLINATION":97.5384,"RA_OF_ASC_NODE":153.8218,"ARG_OF_PERICENTER":253.3003,"MEAN_ANOMALY":106.7196,"EPHEMERIS_TYPE":0,"CLASSIFICATION_TYPE":"U","NORAD_CAT_ID":68203,"ELEMENT_SET_NO":999,"REV_AT_EPOCH":37,"BSTAR":0.0003248109,"MEAN_MOTION_DOT":5.296e-5,"MEAN_MOTION_DDOT":0},{"OBJECT_NAME":"2026-052G","OBJECT_ID":"2026-052G","EPOCH":"2026-03-18T14:27:34.089696","MEAN_MOTION":15.10577264,"ECCENTRICITY":0.00090306,"INCLINATION":97.539,"RA_OF_ASC_NODE":153.8157,"ARG_OF_PERICENTER":256.7108,"MEAN_ANOMALY":103.3115,"EPHEMERIS_TYPE":0,"CLASSIFICATION_TYPE":"U","NORAD_CAT_ID":68204,"ELEMENT_SET_NO":999,"REV_AT_EPOCH":37,"BSTAR":0.00033357952,"MEAN_MOTION_DOT":5.448e-5,"MEAN_MOTION_DDOT":0},{"OBJECT_NAME":"KZ-11 R/B","OBJECT_ID":"2026-052H","EPOCH":"2026-03-18T14:31:21.358848","MEAN_MOTION":14.66599398,"ECCENTRICITY":0.05494983,"INCLINATION":97.3436,"RA_OF_ASC_NODE":153.9432,"ARG_OF_PERICENTER":5.1729,"MEAN_ANOMALY":355.4841,"EPHEMERIS_TYPE":0,"CLASSIFICATION_TYPE":"U","NORAD_CAT_ID":68205,"ELEMENT_SET_NO":999,"REV_AT_EPOCH":36,"BSTAR":0.00041734408,"MEAN_MOTION_DOT":0.00028052,"MEAN_MOTION_DDOT":1.763405e-6}]
