SHIYAN-30 04            
1 68140U 26048B   26077.74141804  .00001431  00000+0  14223-3 0  9993
2 68140  34.9911  89.8062 0002506 286.0433  73.9995 14.91682779   859
CZ-2D R/B               
1 68141U 26048C   26077.46189244  .00001555  00000+0  14023-3 0  9998
2 68141  35.1293  91.5290 0015155  40.7983 319.3858 14.95528002   811
YAOGAN-50 02            
1 68196U 26051A   26077.50736120  .00000252  00000+0  29264-4 0  9995
2 68196 142.0175 249.1578 0107477 141.9397 218.8970 14.07679277   429
CZ-6A R/B               
1 68197U 26051B   26077.42349510  .00001385  00000+0  18983-3 0  9993
2 68197 142.0311 249.7328 0185630 112.6794 249.3680 14.56355526   434
2026-052A               
1 68198U 26052A   26077.60366535  .00005740  00000+0  35823-3 0  9992
2 68198  97.5390 153.8165 0012295 256.4558 103.5302 15.09827007   373
2026-052B               
1 68199U 26052B   26077.53712985  .00001580  00000+0  10108-3 0  9996
2 68199  97.5382 153.7509 0011565 258.3295 101.6636 15.09983837   366
2026-052C               
1 68200U 26052C   26077.60317538  .00003517  00000+0  21931-3 0  9990
2 68200  97.5387 153.8176 0011244 261.1579  98.8377 15.10130265   366
2026-052D               
1 68201U 26052D   26077.60296144  .00005485  00000+0  33853-3 0  9992
2 68201  97.5387 153.8150 0010316 257.0784 102.9293 15.10271490   371
2026-052E               
1 68202U 26052E   26077.60295247  .00005089  00000+0  31438-3 0  9993
2 68202  97.5396 153.8158 0010192 261.3625  98.6450 15.10274806   374
2026-052F               
1 68203U 26052F   26077.60255771  .00005296  00000+0  32481-3 0  9991
2 68203  97.5384 153.8218 0009387 253.3003 106.7196 15.10527017   377
2026-052G               
1 68204U 26052G   26077.60247789  .00005448  00000+0  33358-3 0  9995
2 68204  97.5390 153.8157 0009030 256.7108 103.3115 15.10577264   378
KZ-11 R/B               
1 68205U 26052H   26077.60510832  .00028052  17634-5  41734-3 0  9998
2 68205  97.3436 153.9432 0549498   5.1729 355.4841 14.66599398   364
